[{"OBJECT_NAME":"ONEWEB-0703","OBJECT_ID":"2023-068Q","EPOCH":"2026-03-09T14:57:18.247104","MEAN_MOTION":13.15547603,"ECCENTRICITY":0.0001533,"INCLINATION":87.8938,"RA_OF_ASC_NODE":279.0853,"ARG_OF_PERICENTER":126.6666,"MEAN_ANOMALY":233.4605,"EPHEMERIS_TYPE":0,"CLASSIFICATION_TYPE":"U","NORAD_CAT_ID":56724,"ELEMENT_SET_NO":999,"REV_AT_EPOCH":13616,"BSTAR":-0.0001075,"MEAN_MOTION_DOT":-2.8e-7,"MEAN_MOTION_DDOT":0},{"OBJECT_NAME":"BREEZE-KM R\/B","OBJECT_ID":"2013-076D","EPOCH":"2026-03-09T22:24:36.452736","MEAN_MOTION":12.82989438,"ECCENTRICITY":0.02319191,"INCLINATION":82.4872,"RA_OF_ASC_NODE":13.8727,"ARG_OF_PERICENTER":235.1586,"MEAN_ANOMALY":122.7511,"EPHEMERIS_TYPE":0,"CLASSIFICATION_TYPE":"U","NORAD_CAT_ID":39486,"ELEMENT_SET_NO":999,"REV_AT_EPOCH":57152,"BSTAR":4.677835e-6,"MEAN_MOTION_DOT":1.1e-7,"MEAN_MOTION_DDOT":0}]
